{"type": "FeatureCollection", "features": [ {"type": "Feature", "properties": {"norad_id": 43262, "name": "GAOFEN-1 04", "group": "resource", "lat": 44.56054846918992, "lon": -133.17990422331548, "alt_km": 636.5831701503657, "timestamp": "2025-12-06T22:38:42.392573+00:00", "meta": {"OBJECT_NAME": "GAOFEN-1 04", "OBJECT_ID": "2018-031D", "EPOCH": "2025-12-06T15:31:50.441376", "MEAN_MOTION": 14.76431162, "ECCENTRICITY": 0.0001238, "INCLINATION": 98.0814, "RA_OF_ASC_NODE": 38.4802, "ARG_OF_PERICENTER": 62.1008, "MEAN_ANOMALY": 298.0326, "EPHEMERIS_TYPE": 0, "CLASSIFICATION_TYPE": "U", "NORAD_CAT_ID": 43262, "ELEMENT_SET_NO": 999, "REV_AT_EPOCH": 41427, "BSTAR": 0.00028992496, "MEAN_MOTION_DOT": 1.964e-05, "MEAN_MOTION_DDOT": 0}, "tle": {"line1": "1 43262U 18031D   25340.64711159  .00001964  00000+0  28992-3 0  9990", "line2": "2 43262  98.0814  38.4802 0001238  62.1008 298.0326 14.76431162414278"}}, "geometry": {"type": "Point", "coordinates": [-133.17990422331548, 44.56054846918992]}}, {"type": "Feature", "properties": {"norad_id": 43437, "name": "SENTINEL-3B", "group": "resource", "lat": -74.3080864161248, "lon": -166.50050362690104, "alt_km": 810.8793492855111, "timestamp": "2025-12-06T22:38:42.392583+00:00", "meta": {"OBJECT_NAME": "SENTINEL-3B", "OBJECT_ID": "2018-039A", "EPOCH": "2025-12-06T14:42:45.455040", "MEAN_MOTION": 14.26739322, "ECCENTRICITY": 0.000152, "INCLINATION": 98.6274, "RA_OF_ASC_NODE": 45.8858, "ARG_OF_PERICENTER": 108.8359, "MEAN_ANOMALY": 251.2987, "EPHEMERIS_TYPE": 0, "CLASSIFICATION_TYPE": "U", "NORAD_CAT_ID": 43437, "ELEMENT_SET_NO": 999, "REV_AT_EPOCH": 39666, "BSTAR": 0.00014824281, "MEAN_MOTION_DOT": 3.15e-06, "MEAN_MOTION_DDOT": 0}, "tle": {"line1": "1 43437U 18039A   25340.61302610  .00000315  00000+0  14824-3 0  9995", "line2": "2 43437  98.6274  45.8858 0001520 108.8359 251.2987 14.26739322396662"}}, "geometry": {"type": "Point", "coordinates": [-166.50050362690104, -74.3080864161248]}}, {"type": "Feature", "properties": {"norad_id": 43461, "name": "GAOFEN-5 01", "group": "resource", "lat": -79.91800169847151, "lon": 67.27399948087947, "alt_km": 699.3124690782297, "timestamp": "2025-12-06T22:38:42.392593+00:00", "meta": {"OBJECT_NAME": "GAOFEN-5 01", "OBJECT_ID": "2018-043A", "EPOCH": "2025-12-06T14:51:36.940320", "MEAN_MOTION": 14.60399549, "ECCENTRICITY": 0.00013604, "INCLINATION": 98.4316, "RA_OF_ASC_NODE": 303.4799, "ARG_OF_PERICENTER": 1.2654, "MEAN_ANOMALY": 358.8549, "EPHEMERIS_TYPE": 0, "CLASSIFICATION_TYPE": "U", "NORAD_CAT_ID": 43461, "ELEMENT_SET_NO": 999, "REV_AT_EPOCH": 40358, "BSTAR": 0.0002167334, "MEAN_MOTION_DOT": 1e-05, "MEAN_MOTION_DDOT": 0}, "tle": {"line1": "1 43461U 18043A   25340.61917755  .00001000  00000+0  21673-3 0  9991", "line2": "2 43461  98.4316 303.4799 0001360   1.2654 358.8549 14.60399549403586"}}, "geometry": {"type": "Point", "coordinates": [67.27399948087947, -79.91800169847151]}}, {"type": "Feature", "properties": {"norad_id": 43484, "name": "GAOFEN-6", "group": "resource", "lat": -74.38955676808027, "lon": 74.80182662942698, "alt_km": 656.1639963949619, "timestamp": "2025-12-06T22:38:42.392603+00:00", "meta": {"OBJECT_NAME": "GAOFEN-6", "OBJECT_ID": "2018-048A", "EPOCH": "2025-12-06T14:51:33.376320", "MEAN_MOTION": 14.76549612, "ECCENTRICITY": 0.00133079, "INCLINATION": 97.804, "RA_OF_ASC_NODE": 45.0914, "ARG_OF_PERICENTER": 81.8206, "MEAN_ANOMALY": 278.4513, "EPHEMERIS_TYPE": 0, "CLASSIFICATION_TYPE": "U", "NORAD_CAT_ID": 43484, "ELEMENT_SET_NO": 999, "REV_AT_EPOCH": 40497, "BSTAR": 0.00024653973, "MEAN_MOTION_DOT": 1.672e-05, "MEAN_MOTION_DDOT": 0}, "tle": {"line1": "1 43484U 18048A   25340.61913630  .00001672  00000+0  24654-3 0  9996", "line2": "2 43484  97.8040  45.0914 0013307  81.8206 278.4513 14.76549612404974"}}, "geometry": {"type": "Point", "coordinates": [74.80182662942698, -74.38955676808027]}}, {"type": "Feature", "properties": {"norad_id": 43585, "name": "GAOFEN-11 01", "group": "resource", "lat": 18.96519627499754, "lon": 41.45267063512097, "alt_km": 417.62137313821404, "timestamp": "2025-12-06T22:38:42.392614+00:00", "meta": {"OBJECT_NAME": "GAOFEN-11 01", "OBJECT_ID": "2018-063A", "EPOCH": "2025-12-06T14:48:38.595168", "MEAN_MOTION": 15.48969162, "ECCENTRICITY": 0.00046641, "INCLINATION": 97.1566, "RA_OF_ASC_NODE": 43.6038, "ARG_OF_PERICENTER": 340.7444, "MEAN_ANOMALY": 19.363, "EPHEMERIS_TYPE": 0, "CLASSIFICATION_TYPE": "U", "NORAD_CAT_ID": 43585, "ELEMENT_SET_NO": 999, "REV_AT_EPOCH": 41047, "BSTAR": 0.00040886022, "MEAN_MOTION_DOT": 0.00022048, "MEAN_MOTION_DDOT": 0}, "tle": {"line1": "1 43585U 18063A   25340.61711337  .00022048  00000+0  40886-3 0  9990", "line2": "2 43585  97.1566  43.6038 0004664 340.7444  19.3630 15.48969162410470"}}, "geometry": {"type": "Point", "coordinates": [41.45267063512097, 18.96519627499754]}}, {"type": "Feature", "properties": {"norad_id": 43613, "name": "ICESAT-2", "group": "resource", "lat": -10.8780671359661, "lon": 58.78706163913141, "alt_km": 484.69701066109155, "timestamp": "2025-12-06T22:38:42.392624+00:00", "meta": {"OBJECT_NAME": "ICESAT-2", "OBJECT_ID": "2018-070A", "EPOCH": "2025-12-06T15:31:35.712768", "MEAN_MOTION": 15.28172699, "ECCENTRICITY": 0.00017445, "INCLINATION": 92.0051, "RA_OF_ASC_NODE": 239.0928, "ARG_OF_PERICENTER": 161.9504, "MEAN_ANOMALY": 198.1808, "EPHEMERIS_TYPE": 0, "CLASSIFICATION_TYPE": "U", "NORAD_CAT_ID": 43613, "ELEMENT_SET_NO": 999, "REV_AT_EPOCH": 40305, "BSTAR": 0.00076662964, "MEAN_MOTION_DOT": 0.0002107, "MEAN_MOTION_DDOT": 0}, "tle": {"line1": "1 43613U 18070A   25340.64694112  .00021070  00000+0  76663-3 0  9990", "line2": "2 43613  92.0051 239.0928 0001744 161.9504 198.1808 15.28172699403058"}}, "geometry": {"type": "Point", "coordinates": [58.78706163913141, -10.8780671359661]}}, {"type": "Feature", "properties": {"norad_id": 43719, "name": "HYSIS", "group": "resource", "lat": -80.23015518003557, "lon": 98.81786242479458, "alt_km": 641.9533214064713, "timestamp": "2025-12-06T22:38:42.392634+00:00", "meta": {"OBJECT_NAME": "HYSIS", "OBJECT_ID": "2018-096A", "EPOCH": "2025-12-06T14:54:20.806560", "MEAN_MOTION": 14.78620122, "ECCENTRICITY": 0.00015705, "INCLINATION": 98.0104, "RA_OF_ASC_NODE": 43.6288, "ARG_OF_PERICENTER": 64.146, "MEAN_ANOMALY": 295.9913, "EPHEMERIS_TYPE": 0, "CLASSIFICATION_TYPE": "U", "NORAD_CAT_ID": 43719, "ELEMENT_SET_NO": 999, "REV_AT_EPOCH": 37896, "BSTAR": 0.00038100951, "MEAN_MOTION_DOT": 2.738e-05, "MEAN_MOTION_DDOT": 0}, "tle": {"line1": "1 43719U 18096A   25340.62107415  .00002738  00000+0  38101-3 0  9993", "line2": "2 43719  98.0104  43.6288 0001570  64.1460 295.9913 14.78620122378967"}}, "geometry": {"type": "Point", "coordinates": [98.81786242479458, -80.23015518003557]}}, {"type": "Feature", "properties": {"norad_id": 43783, "name": "KAZSTSAT", "group": "resource", "lat": 78.09187936004902, "lon": -22.008466939480616, "alt_km": 561.478452668699, "timestamp": "2025-12-06T22:38:42.392644+00:00", "meta": {"OBJECT_NAME": "KAZSTSAT", "OBJECT_ID": "2018-099AB", "EPOCH": "2025-12-06T07:52:16.758336", "MEAN_MOTION": 14.99321431, "ECCENTRICITY": 0.00062836, "INCLINATION": 97.4553, "RA_OF_ASC_NODE": 15.7886, "ARG_OF_PERICENTER": 355.5156, "MEAN_ANOMALY": 4.601, "EPHEMERIS_TYPE": 0, "CLASSIFICATION_TYPE": "U", "NORAD_CAT_ID": 43783, "ELEMENT_SET_NO": 999, "REV_AT_EPOCH": 38240, "BSTAR": 0.00028933307, "MEAN_MOTION_DOT": 3.48e-05, "MEAN_MOTION_DDOT": 0}, "tle": {"line1": "1 43783U 18099AB  25340.32797174  .00003480  00000+0  28933-3 0  9998", "line2": "2 43783  97.4553  15.7886 0006283 355.5156   4.6010 14.99321431382409"}}, "geometry": {"type": "Point", "coordinates": [-22.008466939480616, 78.09187936004902]}}, {"type": "Feature", "properties": {"norad_id": 43831, "name": "SAUDISAT 5A", "group": "resource", "lat": -53.28067045253182, "lon": 51.1929505749979, "alt_km": 503.032794512028, "timestamp": "2025-12-06T22:38:42.392654+00:00", "meta": {"OBJECT_NAME": "SAUDISAT 5A", "OBJECT_ID": "2018-102A", "EPOCH": "2025-12-06T15:00:36.980928", "MEAN_MOTION": 15.25544547, "ECCENTRICITY": 0.00118297, "INCLINATION": 97.336, "RA_OF_ASC_NODE": 40.935, "ARG_OF_PERICENTER": 94.9068, "MEAN_ANOMALY": 265.3521, "EPHEMERIS_TYPE": 0, "CLASSIFICATION_TYPE": "U", "NORAD_CAT_ID": 43831, "ELEMENT_SET_NO": 999, "REV_AT_EPOCH": 38629, "BSTAR": 0.00039968101, "MEAN_MOTION_DOT": 0.0001009, "MEAN_MOTION_DDOT": 0}, "tle": {"line1": "1 43831U 18102A   25340.62542802  .00010090  00000+0  39968-3 0  9991", "line2": "2 43831  97.3360  40.9350 0011829  94.9068 265.3521 15.25544547386291"}}, "geometry": {"type": "Point", "coordinates": [51.1929505749979, -53.28067045253182]}}, {"type": "Feature", "properties": {"norad_id": 43833, "name": "SAUDISAT 5B", "group": "resource", "lat": -9.09069163251345, "lon": 45.158026999746035, "alt_km": 494.5283641048918, "timestamp": "2025-12-06T22:38:42.392665+00:00", "meta": {"OBJECT_NAME": "SAUDISAT 5B", "OBJECT_ID": "2018-102C", "EPOCH": "2025-12-06T14:48:57.394944", "MEAN_MOTION": 15.25899877, "ECCENTRICITY": 0.00125199, "INCLINATION": 97.3455, "RA_OF_ASC_NODE": 43.6548, "ARG_OF_PERICENTER": 97.4256, "MEAN_ANOMALY": 262.8406, "EPHEMERIS_TYPE": 0, "CLASSIFICATION_TYPE": "U", "NORAD_CAT_ID": 43833, "ELEMENT_SET_NO": 999, "REV_AT_EPOCH": 38640, "BSTAR": 0.00039192966, "MEAN_MOTION_DOT": 0.00010002, "MEAN_MOTION_DDOT": 0}, "tle": {"line1": "1 43833U 18102C   25340.61733096  .00010002  00000+0  39193-3 0  9992", "line2": "2 43833  97.3455  43.6548 0012519  97.4256 262.8406 15.25899877386407"}}, "geometry": {"type": "Point", "coordinates": [45.158026999746035, -9.09069163251345]}}]}